ONEWEB-0144             
1 47290U 20100AJ  25344.37481491 -.00000255  00000+0 -74544-3 0  9990
2 47290  87.8937  28.1408 0001532  87.7903 272.3401 13.12442621239801
ONEWEB-0145             
1 47291U 20100AK  25344.49809140  .00000370  00000+0  99267-3 0  9994
2 47291  87.8945  28.1545 0001677  96.2724 263.8596 13.12443694240015
ONEWEB-0146             
1 47292U 20100AL  25344.41860659  .00000449  00000+0  12129-2 0  9997
2 47292  87.8943  28.1567 0002080 101.0869 259.0494 13.12444955239914
ONEWEB-0147             
1 47293U 20100AM  25344.15581568 -.00000402  00000+0 -11530-2 0  9994
2 47293  87.8947  28.1876 0001856  88.5287 271.6054 13.12444386239779
ONEWEB-0115             
1 48042U 21025A   25344.48381485  .00000274  00000+0  71643-3 0  9993
2 48042  87.8988 357.7214 0001755  92.7749 267.3581 13.13472189228826
ONEWEB-0152             
1 48043U 21025B   25344.49736374  .00000333  00000+0  87641-3 0  9997
2 48043  87.8977 357.7259 0001872  92.4049 267.7295 13.13470444228787
ONEWEB-0153             
1 48044U 21025C   25344.47535363  .00000085  00000+0  19701-3 0  9997
2 48044  87.8984 357.7354 0001699  92.6722 267.4601 13.13471567228773
ONEWEB-0154             
1 48045U 21025D   25344.31960931 -.00000053  00000+0 -17875-3 0  9991
2 48045  87.8982 357.7629 0001765  89.8710 270.2621 13.13471440228714
